[{"OBJECT_NAME":"COSMOS 2523","OBJECT_ID":"2017-037E","EPOCH":"2026-03-09T23:01:03.762912","MEAN_MOTION":14.95066265,"ECCENTRICITY":0.0066686,"INCLINATION":97.5062,"RA_OF_ASC_NODE":86.2978,"ARG_OF_PERICENTER":201.8356,"MEAN_ANOMALY":158.0021,"EPHEMERIS_TYPE":0,"CLASSIFICATION_TYPE":"U","NORAD_CAT_ID":42986,"ELEMENT_SET_NO":999,"REV_AT_EPOCH":45413,"BSTAR":0.00015362789,"MEAN_MOTION_DOT":1.699e-5,"MEAN_MOTION_DDOT":0},{"OBJECT_NAME":"STARLINK-5495","OBJECT_ID":"2023-021H","EPOCH":"2026-03-09T16:57:15.087168","MEAN_MOTION":14.98345366,"ECCENTRICITY":0.00035922,"INCLINATION":70.0007,"RA_OF_ASC_NODE":184.4286,"ARG_OF_PERICENTER":276.1302,"MEAN_ANOMALY":83.9448,"EPHEMERIS_TYPE":0,"CLASSIFICATION_TYPE":"U","NORAD_CAT_ID":55635,"ELEMENT_SET_NO":999,"REV_AT_EPOCH":16879,"BSTAR":1.6539935e-5,"MEAN_MOTION_DOT":1.04e-6,"MEAN_MOTION_DDOT":0}]
